{
    "links": {
        "self": "http://www.neowsapp.com/rest/v1/neo/3856705?api_key=iIulBulltgU6a56xZRHN4H3l9WmuAYTsLGpBGhQ2"
    },
    "id": "3856705",
    "neo_reference_id": "3856705",
    "name": "(2019 SY3)",
    "designation": "2019 SY3",
    "nasa_jpl_url": "http://ssd.jpl.nasa.gov/sbdb.cgi?sstr=3856705",
    "absolute_magnitude_h": 23.3,
    "estimated_diameter": {
        "kilometers": {
            "estimated_diameter_min": 0.058150704,
            "estimated_diameter_max": 0.130028927
        },
        "meters": {
            "estimated_diameter_min": 58.1507039646,
            "estimated_diameter_max": 130.0289270043
        },
        "miles": {
            "estimated_diameter_min": 0.0361331611,
            "estimated_diameter_max": 0.0807962044
        },
        "feet": {
            "estimated_diameter_min": 190.7831555951,
            "estimated_diameter_max": 426.6041048727
        }
    },
    "is_potentially_hazardous_asteroid": false,
    "close_approach_data": [
        {
            "close_approach_date": "2019-10-08",
            "close_approach_date_full": "2019-Oct-08 14:00",
            "epoch_date_close_approach": 1570543200000,
            "relative_velocity": {
                "kilometers_per_second": "15.8041673309",
                "kilometers_per_hour": "56895.0023911396",
                "miles_per_hour": "35352.3419024278"
            },
            "miss_distance": {
                "astronomical": "0.0855768843",
                "lunar": "33.2894079927",
                "kilometers": "12802119.612516441",
                "miles": "7954868.2550752458"
            },
            "orbiting_body": "Earth"
        }
    ],
    "orbital_data": {
        "orbit_id": "3",
        "orbit_determination_date": "2019-10-03 06:13:46",
        "first_observation_date": "2019-09-24",
        "last_observation_date": "2019-10-02",
        "data_arc_in_days": 8,
        "observations_used": 19,
        "orbit_uncertainty": "9",
        "minimum_orbit_intersection": ".0577933",
        "jupiter_tisserand_invariant": "3.719",
        "epoch_osculation": "2458753.5",
        "eccentricity": ".5834501661552605",
        "semi_major_axis": "1.889146691887205",
        "inclination": "9.677280136795275",
        "ascending_node_longitude": "350.3384969202685",
        "orbital_period": "948.411802788312",
        "perihelion_distance": ".7869237406139548",
        "perihelion_argument": "94.76187997174092",
        "aphelion_distance": "2.991369643160456",
        "perihelion_time": "2458811.535002080906",
        "mean_anomaly": "337.9709608339939",
        "mean_motion": ".3795819484127118",
        "equinox": "J2000",
        "orbit_class": {
            "orbit_class_type": "APO",
            "orbit_class_description": "Near-Earth asteroid orbits which cross the Earth’s orbit similar to that of 1862 Apollo",
            "orbit_class_range": "a (semi-major axis) > 1.0 AU; q (perihelion) < 1.017 AU"
        }
    },
    "is_sentry_object": false
}